[
    {
        "Altitude(m)": 611965.1830159274,
        "Argument of Periapsis(deg)": 0.0,
        "Eccentricity": 0.0,
        "Inclination(deg)": 60.0,
        "Latitude(deg)": 59.140154471035125,
        "Longitude(deg)": -26.03034453149711,
        "Mean Anomaly(deg)": 81.8182,
        "RAAN(deg)": 0.0,
        "Satellite Name": "Test1 5",
        "Satellite Number": 5,
        "Semi-Major Axis(m)": 6980739.136638005,
        "Time(s)": 0
    },
    {
        "Altitude(m)": 611995.8091613663,
        "Argument of Periapsis(deg)": 0.00010418945913296404,
        "Eccentricity": 0.0,
        "Inclination(deg)": 60.0,
        "Latitude(deg)": 59.28325638424516,
        "Longitude(deg)": -24.896983481167837,
        "Mean Anomaly(deg)": 82.43830614546184,
        "RAAN(deg)": -0.0004200491397426661,
        "Satellite Name": "Test1 5",
        "Satellite Number": 5,
        "Semi-Major Axis(m)": 6980739.136638005,
        "Time(s)": 10
    }
]